STARLINK-36289          
1 67827U 26033G   26066.03822098  .00291421  00000+0  13336-2 0  9992
2 67827  42.9977 287.7109 0002174 277.3201  82.7423 15.82125539  4203
STARLINK-36670          
1 67828U 26033H   26066.03747119  .00136852  00000+0  64054-3 0  9993
2 67828  42.9980 287.7045 0002290 262.9537  97.1074 15.82070960  4207
STARLINK-36144          
1 67829U 26033J   26066.03672100  .00317626  00000+0  14480-2 0  9998
2 67829  42.9972 287.6985 0002342 274.3992  85.6613 15.82137913  4204
STARLINK-36611          
1 67830U 26033K   26066.03597325  .00262755  00000+0  12074-2 0  9994
2 67830  42.9975 287.6927 0002646 273.6891  86.3678 15.82112248  4205
STARLINK-36661          
1 67831U 26033L   26066.03522320  .00233795  00000+0  10785-2 0  9997
2 67831  42.9979 287.6861 0002095 273.1144  86.9488 15.82106529  4201
STARLINK-36662          
1 67832U 26033M   26066.04022538  .00278631  00000+0  11413-2 0  9992
2 67832  42.9960 286.8181 0002083 277.2790  82.7845 15.84503130  4210
STARLINK-36659          
1 67833U 26033N   26065.97134170  .00265747  00000+0  12204-2 0  9993
2 67833  42.9969 288.0668 0002139 283.6596  76.4038 15.82116713  4197
STARLINK-36655          
1 67834U 26033P   26066.03372550  .00207927  00000+0  96300-3 0  9994
2 67834  42.9972 287.6739 0002340 270.1913  89.8690 15.82091443  4200
STARLINK-36657          
1 67835U 26033Q   26066.03297715  .00307335  00000+0  14039-2 0  9996
2 67835  42.9973 287.6672 0002313 280.6500  79.4111 15.82121736  4208
STARLINK-36650          
1 67836U 26033R   26066.03222525  .00233065  00000+0  10751-2 0  9999
2 67836  42.9975 287.6616 0002306 271.2182  88.8425 15.82108321  4200
STARLINK-36649          
1 67837U 26033S   26066.03147706  .00259492  00000+0  11928-2 0  9996
2 67837  42.9973 287.6553 0002344 277.5736  82.4869 15.82113065  4208
STARLINK-36654          
1 67838U 26033T   26066.03072603  .00276167  00000+0  12663-2 0  9995
2 67838  42.9972 287.6488 0002479 261.7222  98.3369 15.82122213  4205
STARLINK-36652          
1 67839U 26033U   26065.96685623  .00129277  00000+0  60717-3 0  9992
2 67839  42.9975 288.0302 0001984 275.4915  84.5730 15.82021632  4190
STARLINK-36651          
1 67840U 26033V   26066.02923102  .00196910  00000+0  91359-3 0  9993
2 67840  42.9980 287.6376 0001690 279.2370  80.8310 15.82085310  4203
STARLINK-36656          
1 67841U 26033W   26066.02848122  .00135888  00000+0  63641-3 0  9992
2 67841  42.9979 287.6308 0001945 259.5190 100.5463 15.82061701  4208
STARLINK-36653          
1 67842U 26033X   26066.02772974  .00189700  00000+0  88107-3 0  9990
2 67842  42.9973 287.6243 0002353 263.7500  96.3103 15.82081690  4209
