[{"OBJECT_NAME":"STARLINK-36289","OBJECT_ID":"2026-033G","EPOCH":"2026-03-07T00:55:02.292672","MEAN_MOTION":15.82125539,"ECCENTRICITY":0.00021743,"INCLINATION":42.9977,"RA_OF_ASC_NODE":287.7109,"ARG_OF_PERICENTER":277.3201,"MEAN_ANOMALY":82.7423,"EPHEMERIS_TYPE":0,"CLASSIFICATION_TYPE":"U","NORAD_CAT_ID":67827,"ELEMENT_SET_NO":999,"REV_AT_EPOCH":420,"BSTAR":0.0013335724,"MEAN_MOTION_DOT":0.00291421,"MEAN_MOTION_DDOT":0},{"OBJECT_NAME":"STARLINK-36670","OBJECT_ID":"2026-033H","EPOCH":"2026-03-07T00:53:57.510816","MEAN_MOTION":15.8207096,"ECCENTRICITY":0.00022906,"INCLINATION":42.998,"RA_OF_ASC_NODE":287.7045,"ARG_OF_PERICENTER":262.9537,"MEAN_ANOMALY":97.1074,"EPHEMERIS_TYPE":0,"CLASSIFICATION_TYPE":"U","NORAD_CAT_ID":67828,"ELEMENT_SET_NO":999,"REV_AT_EPOCH":420,"BSTAR":0.00064053695,"MEAN_MOTION_DOT":0.00136852,"MEAN_MOTION_DDOT":0},{"OBJECT_NAME":"STARLINK-36144","OBJECT_ID":"2026-033J","EPOCH":"2026-03-07T00:52:52.694400","MEAN_MOTION":15.82137913,"ECCENTRICITY":0.00023423,"INCLINATION":42.9972,"RA_OF_ASC_NODE":287.6985,"ARG_OF_PERICENTER":274.3992,"MEAN_ANOMALY":85.6613,"EPHEMERIS_TYPE":0,"CLASSIFICATION_TYPE":"U","NORAD_CAT_ID":67829,"ELEMENT_SET_NO":999,"REV_AT_EPOCH":420,"BSTAR":0.0014479887,"MEAN_MOTION_DOT":0.00317626,"MEAN_MOTION_DDOT":0},{"OBJECT_NAME":"STARLINK-36611","OBJECT_ID":"2026-033K","EPOCH":"2026-03-07T00:51:48.088800","MEAN_MOTION":15.82112248,"ECCENTRICITY":0.00026465,"INCLINATION":42.9975,"RA_OF_ASC_NODE":287.6927,"ARG_OF_PERICENTER":273.6891,"MEAN_ANOMALY":86.3678,"EPHEMERIS_TYPE":0,"CLASSIFICATION_TYPE":"U","NORAD_CAT_ID":67830,"ELEMENT_SET_NO":999,"REV_AT_EPOCH":420,"BSTAR":0.0012073595,"MEAN_MOTION_DOT":0.00262755,"MEAN_MOTION_DDOT":0},{"OBJECT_NAME":"STARLINK-36661","OBJECT_ID":"2026-033L","EPOCH":"2026-03-07T00:50:43.284480","MEAN_MOTION":15.82106529,"ECCENTRICITY":0.00020953,"INCLINATION":42.9979,"RA_OF_ASC_NODE":287.6861,"ARG_OF_PERICENTER":273.1144,"MEAN_ANOMALY":86.9488,"EPHEMERIS_TYPE":0,"CLASSIFICATION_TYPE":"U","NORAD_CAT_ID":67831,"ELEMENT_SET_NO":999,"REV_AT_EPOCH":420,"BSTAR":0.001078518,"MEAN_MOTION_DOT":0.00233795,"MEAN_MOTION_DDOT":0},{"OBJECT_NAME":"STARLINK-36662","OBJECT_ID":"2026-033M","EPOCH":"2026-03-07T00:57:55.472832","MEAN_MOTION":15.8450313,"ECCENTRICITY":0.00020839,"INCLINATION":42.996,"RA_OF_ASC_NODE":286.8181,"ARG_OF_PERICENTER":277.279,"MEAN_ANOMALY":82.7845,"EPHEMERIS_TYPE":0,"CLASSIFICATION_TYPE":"U","NORAD_CAT_ID":67832,"ELEMENT_SET_NO":999,"REV_AT_EPOCH":421,"BSTAR":0.0011413211,"MEAN_MOTION_DOT":0.00278631,"MEAN_MOTION_DDOT":0},{"OBJECT_NAME":"STARLINK-36659","OBJECT_ID":"2026-033N","EPOCH":"2026-03-06T23:18:43.922880","MEAN_MOTION":15.82116713,"ECCENTRICITY":0.00021399,"INCLINATION":42.9969,"RA_OF_ASC_NODE":288.0668,"ARG_OF_PERICENTER":283.6596,"MEAN_ANOMALY":76.4038,"EPHEMERIS_TYPE":0,"CLASSIFICATION_TYPE":"U","NORAD_CAT_ID":67833,"ELEMENT_SET_NO":999,"REV_AT_EPOCH":419,"BSTAR":0.0012204443,"MEAN_MOTION_DOT":0.00265747,"MEAN_MOTION_DDOT":0},{"OBJECT_NAME":"STARLINK-36655","OBJECT_ID":"2026-033P","EPOCH":"2026-03-07T00:48:33.883200","MEAN_MOTION":15.82091443,"ECCENTRICITY":0.00023404,"INCLINATION":42.9972,"RA_OF_ASC_NODE":287.6739,"ARG_OF_PERICENTER":270.1913,"MEAN_ANOMALY":89.869,"EPHEMERIS_TYPE":0,"CLASSIFICATION_TYPE":"U","NORAD_CAT_ID":67834,"ELEMENT_SET_NO":999,"REV_AT_EPOCH":420,"BSTAR":0.00096300482,"MEAN_MOTION_DOT":0.00207927,"MEAN_MOTION_DDOT":0},{"OBJECT_NAME":"STARLINK-36657","OBJECT_ID":"2026-033Q","EPOCH":"2026-03-07T00:47:29.225760","MEAN_MOTION":15.82121736,"ECCENTRICITY":0.00023136,"INCLINATION":42.9973,"RA_OF_ASC_NODE":287.6672,"ARG_OF_PERICENTER":280.65,"MEAN_ANOMALY":79.4111,"EPHEMERIS_TYPE":0,"CLASSIFICATION_TYPE":"U","NORAD_CAT_ID":67835,"ELEMENT_SET_NO":999,"REV_AT_EPOCH":420,"BSTAR":0.0014038968,"MEAN_MOTION_DOT":0.00307335,"MEAN_MOTION_DDOT":0},{"OBJECT_NAME":"STARLINK-36650","OBJECT_ID":"2026-033R","EPOCH":"2026-03-07T00:46:24.261600","MEAN_MOTION":15.82108321,"ECCENTRICITY":0.00023062,"INCLINATION":42.9975,"RA_OF_ASC_NODE":287.6616,"ARG_OF_PERICENTER":271.2182,"MEAN_ANOMALY":88.8425,"EPHEMERIS_TYPE":0,"CLASSIFICATION_TYPE":"U","NORAD_CAT_ID":67836,"ELEMENT_SET_NO":999,"REV_AT_EPOCH":420,"BSTAR":0.0010751434,"MEAN_MOTION_DOT":0.00233065,"MEAN_MOTION_DDOT":0},{"OBJECT_NAME":"STARLINK-36649","OBJECT_ID":"2026-033S","EPOCH":"2026-03-07T00:45:19.617984","MEAN_MOTION":15.82113065,"ECCENTRICITY":0.00023442,"INCLINATION":42.9973,"RA_OF_ASC_NODE":287.6553,"ARG_OF_PERICENTER":277.5736,"MEAN_ANOMALY":82.4869,"EPHEMERIS_TYPE":0,"CLASSIFICATION_TYPE":"U","NORAD_CAT_ID":67837,"ELEMENT_SET_NO":999,"REV_AT_EPOCH":420,"BSTAR":0.0011928312,"MEAN_MOTION_DOT":0.00259492,"MEAN_MOTION_DDOT":0},{"OBJECT_NAME":"STARLINK-36654","OBJECT_ID":"2026-033T","EPOCH":"2026-03-07T00:44:14.728992","MEAN_MOTION":15.82122213,"ECCENTRICITY":0.00024797,"INCLINATION":42.9972,"RA_OF_ASC_NODE":287.6488,"ARG_OF_PERICENTER":261.7222,"MEAN_ANOMALY":98.3369,"EPHEMERIS_TYPE":0,"CLASSIFICATION_TYPE":"U","NORAD_CAT_ID":67838,"ELEMENT_SET_NO":999,"REV_AT_EPOCH":420,"BSTAR":0.0012663136,"MEAN_MOTION_DOT":0.00276167,"MEAN_MOTION_DDOT":0},{"OBJECT_NAME":"STARLINK-36652","OBJECT_ID":"2026-033U","EPOCH":"2026-03-06T23:12:16.378272","MEAN_MOTION":15.82021632,"ECCENTRICITY":0.00019847,"INCLINATION":42.9975,"RA_OF_ASC_NODE":288.0302,"ARG_OF_PERICENTER":275.4915,"MEAN_ANOMALY":84.573,"EPHEMERIS_TYPE":0,"CLASSIFICATION_TYPE":"U","NORAD_CAT_ID":67839,"ELEMENT_SET_NO":999,"REV_AT_EPOCH":419,"BSTAR":0.00060716542,"MEAN_MOTION_DOT":0.00129277,"MEAN_MOTION_DDOT":0},{"OBJECT_NAME":"STARLINK-36651","OBJECT_ID":"2026-033V","EPOCH":"2026-03-07T00:42:05.560128","MEAN_MOTION":15.8208531,"ECCENTRICITY":0.00016903,"INCLINATION":42.998,"RA_OF_ASC_NODE":287.6376,"ARG_OF_PERICENTER":279.237,"MEAN_ANOMALY":80.831,"EPHEMERIS_TYPE":0,"CLASSIFICATION_TYPE":"U","NORAD_CAT_ID":67840,"ELEMENT_SET_NO":999,"REV_AT_EPOCH":420,"BSTAR":0.00091358546,"MEAN_MOTION_DOT":0.0019691,"MEAN_MOTION_DDOT":0},{"OBJECT_NAME":"STARLINK-36656","OBJECT_ID":"2026-033W","EPOCH":"2026-03-07T00:41:00.777408","MEAN_MOTION":15.82061701,"ECCENTRICITY":0.00019459,"INCLINATION":42.9979,"RA_OF_ASC_NODE":287.6308,"ARG_OF_PERICENTER":259.519,"MEAN_ANOMALY":100.5463,"EPHEMERIS_TYPE":0,"CLASSIFICATION_TYPE":"U","NORAD_CAT_ID":67841,"ELEMENT_SET_NO":999,"REV_AT_EPOCH":420,"BSTAR":0.00063640696,"MEAN_MOTION_DOT":0.00135888,"MEAN_MOTION_DDOT":0},{"OBJECT_NAME":"STARLINK-36653","OBJECT_ID":"2026-033X","EPOCH":"2026-03-07T00:39:55.849536","MEAN_MOTION":15.8208169,"ECCENTRICITY":0.00023537,"INCLINATION":42.9973,"RA_OF_ASC_NODE":287.6243,"ARG_OF_PERICENTER":263.75,"MEAN_ANOMALY":96.3103,"EPHEMERIS_TYPE":0,"CLASSIFICATION_TYPE":"U","NORAD_CAT_ID":67842,"ELEMENT_SET_NO":999,"REV_AT_EPOCH":420,"BSTAR":0.0008810668,"MEAN_MOTION_DOT":0.001897,"MEAN_MOTION_DDOT":0}]
